[{"OBJECT_NAME":"STARLINK-30553","OBJECT_ID":"2023-158F","EPOCH":"2026-03-09T22:00:01.999584","MEAN_MOTION":15.27575349,"ECCENTRICITY":0.00012398,"INCLINATION":43.0005,"RA_OF_ASC_NODE":25.6344,"ARG_OF_PERICENTER":266.6963,"MEAN_ANOMALY":186.409,"EPHEMERIS_TYPE":0,"CLASSIFICATION_TYPE":"U","NORAD_CAT_ID":58056,"ELEMENT_SET_NO":999,"REV_AT_EPOCH":578,"BSTAR":0.0013758449,"MEAN_MOTION_DOT":0.00037787,"MEAN_MOTION_DDOT":0},{"OBJECT_NAME":"FLOCK 4G-23","OBJECT_ID":"2025-009AQ","EPOCH":"2026-03-09T17:11:57.175872","MEAN_MOTION":15.27262579,"ECCENTRICITY":9.048e-5,"INCLINATION":97.3979,"RA_OF_ASC_NODE":150.9478,"ARG_OF_PERICENTER":7.2707,"MEAN_ANOMALY":352.8545,"EPHEMERIS_TYPE":0,"CLASSIFICATION_TYPE":"U","NORAD_CAT_ID":62647,"ELEMENT_SET_NO":999,"REV_AT_EPOCH":6372,"BSTAR":0.00046815788,"MEAN_MOTION_DOT":0.0001244,"MEAN_MOTION_DDOT":0}]
